KUIPER-00053            
1 64513U 25134P   25212.11711965  .00019163  00000+0  53681-3 0  9992
2 64513  51.8762 149.1573 0001830 218.4169 141.6687 15.36633967  7035
KUIPER-00054            
1 64514U 25134Q   25212.12185746  .00030712  00000+0  85740-3 0  9990
2 64514  51.8749 149.1860 0002429 222.0017 138.0783 15.36459294  7034
KUIPER-00055            
1 64515U 25134R   25212.23632178  .00032218  00000+0  88163-3 0  9994
2 64515  51.8778 148.4608 0000740 151.4742 208.6285 15.37058308  7058
KUIPER-00056            
1 64516U 25134S   25212.51772766  .00026118  00000+0  73635-3 0  9994
2 64516  51.8730 147.3373 0006864 209.4490 150.6110 15.36221545  7092
KUIPER-00057            
1 64517U 25134T   25212.47367485  .00009644  00000+0  28866-3 0  9999
2 64517  51.8705 147.7742 0006367 241.3728 118.6618 15.35185626  7080
KUIPER-00058            
1 64518U 25134U   25212.52627788  .00030189  00000+0  85869-3 0  9995
2 64518  51.8714 147.3875 0004494 241.7074 118.3458 15.35878825  7091
KUIPER-00059            
1 64519U 25134V   25212.36835354  .00030406  00000+0  83340-3 0  9992
2 64519  51.8760 147.8404 0001331 167.4314 192.6706 15.37037107  6603
KUIPER-00060            
1 64520U 25134W   25212.24369799  .00044642  00000+0  12241-2 0  9994
2 64520  51.8764 148.5083 0002188 184.3047 175.7921 15.36839496  7042
